NORAD_CAT_ID,OBJECT_NAME,OBJECT_TYPE,EPOCH,MEAN_MOTION,ECCENTRICITY,INCLINATION,RA_OF_ASC_NODE,ARG_OF_PERICENTER,MEAN_ANOMALY,BSTAR,MEAN_MOTION_DOT,MEAN_MOTION_DDOT,TLE_LINE0,TLE_LINE1,TLE_LINE2,SEMIMAJOR_AXIS,PERIOD,APOGEE,PERIGEE,DECAYED
51139.0,STARLINK-3172,PAYLOAD,2023-02-23 12:36:48,15.08840424,0.0001272,53.214,242.8427,81.8828,278.2308,9.0325e-05,1.15e-05,0.0,0 STARLINK-3172,1 51139U 22005AM  23054.52556572  .00001150  00000-0  90325-4 0  9999,2 51139  53.2140 242.8427 0001272  81.8828 278.2308 15.08840424 61140,6917.879,95.438,540.624,538.864,0.0
51139.0,STARLINK-3172,PAYLOAD,2023-02-23 22:09:07,15.08848238,0.0001287,53.2141,241.0583,81.5124,278.6014,0.00025643,3.796e-05,0.0,0 STARLINK-3172,1 51139U 22005AM  23054.92300314  .00003796  00000-0  25643-3 0  9992,2 51139  53.2141 241.0583 0001287  81.5124 278.6014 15.08848238 62316,6917.855,95.437,540.611,538.83,0.0
51139.0,STARLINK-3172,PAYLOAD,2023-02-24 12:27:36,15.08837005,0.0001331,53.2142,238.3817,83.0188,277.0956,8.8267e-05,1.117e-05,0.0,0 STARLINK-3172,1 51139U 22005AM  23055.51916790  .00001117  00000-0  88267-4 0  9996,2 51139  53.2142 238.3817 0001331  83.0188 277.0956 15.08837005 61297,6917.89,95.438,540.675,538.834,0.0
51139.0,STARLINK-3172,PAYLOAD,2023-02-24 14:02:59,15.08837503,0.0001388,53.2148,238.085,81.7426,278.3723,5.907e-05,6.52e-06,0.0,0 STARLINK-3172,1 51139U 22005AM  23055.58540786  .00000652  00000-0  59070-4 0  9994,2 51139  53.2148 238.0850 0001388  81.7426 278.3723 15.08837503 62413,6917.888,95.438,540.713,538.793,0.0
51139.0,STARLINK-3172,PAYLOAD,2023-02-24 20:24:31,15.08840423,0.0001191,53.2151,236.8952,83.0646,277.0482,9.1969e-05,1.176e-05,0.0,0 STARLINK-3172,1 51139U 22005AM  23055.85036569  .00001176  00000-0  91969-4 0  9998,2 51139  53.2151 236.8952 0001191  83.0646 277.0482 15.08840423 61341,6917.879,95.438,540.568,538.92,0.0
51139.0,STARLINK-3172,PAYLOAD,2023-02-25 12:18:23,15.08832121,0.0001225,53.2151,233.9217,86.3722,273.741,4.2337e-05,3.86e-06,0.0,0 STARLINK-3172,1 51139U 22005AM  23056.51277472  .00000386  00000-0  42337-4 0  9999,2 51139  53.2151 233.9217 0001225  86.3722 273.7410 15.08832121 62556,6917.904,95.438,540.617,538.922,0.0
51139.0,STARLINK-3172,PAYLOAD,2023-02-25 13:53:46,15.08834961,0.0001253,53.2151,233.6242,90.2039,269.9097,1.9646e-05,2.5e-07,0.0,0 STARLINK-3172,1 51139U 22005AM  23056.57901313  .00000025  00000-0  19646-4 0  9990,2 51139  53.2151 233.6242 0001253  90.2039 269.9097 15.08834961 61457,6917.896,95.438,540.628,538.894,0.0
51139.0,STARLINK-3172,PAYLOAD,2023-02-25 18:39:55,15.08839226,0.0001105,53.2153,232.7322,86.8153,273.2966,0.00011904,1.607e-05,0.0,0 STARLINK-3172,1 51139U 22005AM  23056.77772851  .00001607  00000-0  11904-3 0  9990,2 51139  53.2153 232.7322 0001105  86.8153 273.2966 15.08839226 62590,6917.883,95.438,540.512,538.983,0.0
51139.0,STARLINK-3172,PAYLOAD,2023-02-25 20:15:18,15.08843515,0.0001183,53.2153,232.435,87.8924,272.2204,7.6361e-05,9.28e-06,0.0,0 STARLINK-3172,1 51139U 22005AM  23056.84396696  .00000928  00000-0  76361-4 0  9991,2 51139  53.2153 232.4350 0001183  87.8924 272.2204 15.08843515 61499,6917.87,95.437,540.553,538.916,0.0
51139.0,STARLINK-3172,PAYLOAD,2023-02-26 04:12:14,15.08841241,0.0001171,53.2154,230.9478,86.4311,273.6816,3.2916e-05,2.36e-06,0.0,0 STARLINK-3172,1 51139U 22005AM  23057.17516947  .00000236  00000-0  32916-4 0  9991,2 51139  53.2154 230.9478 0001171  86.4311 273.6816 15.08841241 61540,6917.877,95.437,540.552,538.932,0.0
51139.0,STARLINK-3172,PAYLOAD,2023-02-26 20:06:05,15.08847283,0.0001122,53.2147,227.9737,87.8402,272.2718,0.00019057,2.747e-05,0.0,0 STARLINK-3172,1 51139U 22005AM  23057.83756451  .00002747  00000-0  19057-3 0  9999,2 51139  53.2147 227.9737 0001122  87.8402 272.2718 15.08847283 61647,6917.858,95.437,540.499,538.947,0.0
51139.0,STARLINK-3172,PAYLOAD,2023-02-26 21:41:28,15.08850153,0.0001108,53.2147,227.6763,87.4584,272.6535,0.00023483,3.452e-05,0.0,0 STARLINK-3172,1 51139U 22005AM  23057.90380323  .00003452  00000-0  23483-3 0  9990,2 51139  53.2147 227.6763 0001108  87.4584 272.6535 15.08850153 62769,6917.849,95.437,540.481,538.948,0.0
51139.0,STARLINK-3172,PAYLOAD,2023-02-27 04:03:01,15.08839404,9.45e-05,53.2151,226.4867,91.4203,268.6897,5.4152e-05,5.74e-06,0.0,0 STARLINK-3172,1 51139U 22005AM  23058.16876801  .00000574  00000-0  54152-4 0  9990,2 51139  53.2151 226.4867 0000945  91.4203 268.6897 15.08839404 62804,6917.882,95.438,540.401,539.093,0.0
51139.0,STARLINK-3172,PAYLOAD,2023-02-27 19:56:52,15.08857821,0.0001413,53.2147,223.5123,87.0458,273.0696,0.00031018,4.654e-05,0.0,0 STARLINK-3172,1 51139U 22005AM  23058.83116009  .00004654  00000-0  31018-3 0  9999,2 51139  53.2147 223.5123 0001413  87.0458 273.0696 15.08857821 61793,6917.826,95.436,540.668,538.713,0.0
51139.0,STARLINK-3172,PAYLOAD,2023-02-27 23:07:38,15.08865044,0.000105,53.2143,222.9178,96.6213,263.4898,0.0004756,7.295e-05,0.0,0 STARLINK-3172,1 51139U 22005AM  23058.96363546  .00007295  00000-0  47560-3 0  9996,2 51139  53.2143 222.9178 0001050  96.6213 263.4898 15.08865044 62923,6917.804,95.436,540.395,538.942,0.0
51139.0,STARLINK-3172,PAYLOAD,2023-02-28 03:53:49,15.08827121,0.0002552,53.2146,222.026,77.2266,282.9011,-0.00023215,-3.98e-05,0.0,0 STARLINK-3172,1 51139U 22005AM  23059.16237453 -.00003980  00000-0 -23215-3 0  9996,2 51139  53.2146 222.0260 0002552  77.2266 282.9011 15.08827121 61847,6917.92,95.438,541.55,538.019,0.0
51139.0,STARLINK-3172,PAYLOAD,2023-02-28 15:01:31,15.08819724,0.0001151,53.2157,219.9462,79.6056,280.5065,-0.00037595,-6.263e-05,0.0,0 STARLINK-3172,1 51139U 22005AM  23059.62605389 -.00006263  00000-0 -37595-3 0  9997,2 51139  53.2157 219.9462 0001151  79.6056 280.5065 15.08819724 63020,6917.942,95.439,540.604,539.011,0.0
51139.0,STARLINK-3172,PAYLOAD,2023-02-28 19:47:40,15.08825481,0.0001199,53.2149,219.0531,74.5907,285.5218,-0.00019264,-3.351e-05,0.0,0 STARLINK-3172,1 51139U 22005AM  23059.82477565 -.00003351  00000-0 -19264-3 0  9990,2 51139  53.2149 219.0531 0001199  74.5907 285.5218 15.08825481 61941,6917.925,95.438,540.619,538.96,0.0
51139.0,STARLINK-3172,PAYLOAD,2023-03-01 03:44:36,15.08828898,0.0001156,53.2144,217.5661,72.5189,287.5929,7.0337e-05,8.31e-06,0.0,0 STARLINK-3172,1 51139U 22005AM  23060.15597737  .00000831  00000-0  70337-4 0  9999,2 51139  53.2144 217.5661 0001156  72.5189 287.5929 15.08828898 63102,6917.914,95.438,540.579,538.98,0.0
51139.0,STARLINK-3172,PAYLOAD,2023-03-01 18:03:04,15.08852839,0.0001235,53.2137,214.8907,60.5927,299.5188,0.0013531,0.0002132,0.0,0 STARLINK-3172,1 51139U 22005AM  23060.75213915  .00021320  00000-0  13531-2 0  9995,2 51139  53.2137 214.8907 0001235  60.5927 299.5188 15.08852839 63193,6917.841,95.437,540.56,538.852,0.0
51139.0,STARLINK-3172,PAYLOAD,2023-03-01 19:38:27,15.08855876,0.0001221,53.2137,214.5934,59.7652,300.3461,0.0013738,0.00021653,0.0,0 STARLINK-3172,1 51139U 22005AM  23060.81837839  .00021653  00000-0  13738-2 0  9997,2 51139  53.2137 214.5934 0001221  59.7652 300.3461 15.08855876 62097,6917.832,95.437,540.542,538.852,0.0
51139.0,STARLINK-3172,PAYLOAD,2023-03-02 03:35:23,15.08853044,0.0001834,53.2139,213.1058,75.323,284.7965,0.00095069,0.0001488,0.0,0 STARLINK-3172,1 51139U 22005AM  23061.14957942  .00014880  00000-0  95069-3 0  9994,2 51139  53.2139 213.1058 0001834  75.3230 284.7965 15.08853044 63255,6917.841,95.437,540.974,538.437,0.0
51139.0,STARLINK-3172,PAYLOAD,2023-03-02 17:53:50,15.08872593,0.0001275,53.214,210.4296,72.1301,287.983,0.0010383,0.0001629,0.0,0 STARLINK-3172,1 51139U 22005AM  23061.74572846  .00016290  00000-0  10383-2 0  9998,2 51139  53.2140 210.4296 0001275  72.1301 287.9830 15.08872593 62237,6917.781,95.435,540.528,538.764,0.0
51139.0,STARLINK-3172,PAYLOAD,2023-03-03 03:26:09,15.08851113,0.0001215,53.2141,208.6452,77.7949,282.3179,0.00019139,2.76e-05,0.0,0 STARLINK-3172,1 51139U 22005AM  23062.14316896  .00002760  00000-0  19139-3 0  9990,2 51139  53.2141 208.6452 0001215  77.7949 282.3179 15.08851113 63404,6917.846,95.437,540.552,538.871,0.0
51139.0,STARLINK-3172,PAYLOAD,2023-03-03 16:09:14,15.08862441,0.0001715,53.2145,206.2662,91.0943,269.0246,0.001842,0.00029167,0.0,0 STARLINK-3172,1 51139U 22005AM  23062.67308758  .00029167  00000-0  18420-2 0  9997,2 51139  53.2145 206.2662 0001715  91.0943 269.0246 15.08862441 62371,6917.812,95.436,540.863,538.49,0.0
51139.0,STARLINK-3172,PAYLOAD,2023-03-04 09:38:29,15.08839707,0.0003198,53.2113,202.9914,91.7863,268.3495,0.0014309,0.00022559,0.0,0 STARLINK-3172,1 51139U 22005AM  23063.40173499  .00022559  00000-0  14309-2 0  9991,2 51139  53.2113 202.9914 0003198  91.7863 268.3495 15.08839707 63596,6917.881,95.438,541.959,537.534,0.0
51139.0,STARLINK-3172,PAYLOAD,2023-03-04 20:46:11,15.0885737,0.0001383,53.2148,200.9134,92.1012,268.0139,0.0019202,0.00030419,0.0,0 STARLINK-3172,1 51139U 22005AM  23063.86541205  .00030419  00000-0  19202-2 0  9996,2 51139  53.2148 200.9134 0001383  92.1012 268.0139 15.08857370 62554,6917.827,95.436,540.649,538.736,0.0
51139.0,STARLINK-3172,PAYLOAD,2023-03-05 01:32:21,15.08825941,0.0001396,53.2152,200.0207,98.5146,261.6005,0.00053434,8.223e-05,0.0,0 STARLINK-3172,1 51139U 22005AM  23064.06413874  .00008223  00000-0  53434-3 0  9993,2 51139  53.2152 200.0207 0001396  98.5146 261.6005 15.08825941 63699,6917.923,95.438,540.754,538.823,0.0
51139.0,STARLINK-3172,PAYLOAD,2023-03-06 01:23:08,15.08880535,0.0002231,53.2154,195.5598,76.3467,283.7774,0.0024119,0.0003835,0.0,0 STARLINK-3172,1 51139U 22005AM  23065.05773800  .00038350  00000-0  24119-2 0  9992,2 51139  53.2154 195.5598 0002231  76.3467 283.7774 15.08880535 63846,6917.756,95.435,541.165,538.078,0.0
51139.0,STARLINK-3172,PAYLOAD,2023-03-06 18:52:22,15.0886821,0.0002249,53.2154,192.2886,75.1763,284.9478,0.0017063,0.00026994,0.0,0 STARLINK-3172,1 51139U 22005AM  23065.78637199  .00026994  00000-0  17063-2 0  9993,2 51139  53.2154 192.2886 0002249  75.1763 284.9478 15.08868210 63957,6917.794,95.436,541.215,538.103,0.0
